ONEWEB-0418             
1 50493U 21132AA  24283.75353870  .00000097  00000+0  21298-3 0  9997
2 50493  87.9047  97.9461 0001333  78.5279 281.6003 13.18683855140555
ONEWEB-0419             
1 50494U 21132AB  24283.77105751  .00000064  00000+0  12907-3 0  9994
2 50494  87.9042  97.9560 0001786  79.9141 280.2193 13.18687627140473
ONEWEB-0420             
1 50495U 21132AC  24283.73785410  .00000070  00000+0  14370-3 0  9990
2 50495  87.9047  97.9717 0001972  96.2874 263.8483 13.18684737140462
ONEWEB-0421             
1 50496U 21132AD  24283.73154246  .00000088  00000+0  19041-3 0  9997
2 50496  87.9055  97.9473 0001543 102.6202 257.5103 13.18686197140508
ONEWEB-0424             
1 50497U 21132AE  24283.99394794 -.00000037  00000+0 -12656-3 0  9991
2 50497  87.9046  97.8954 0001944  76.4591 283.6758 13.18686987141847
ONEWEB-0426             
1 50498U 21132AF  24284.56301381  .00000132  00000+0  30142-3 0  9990
2 50498  87.9046  97.7945 0001058  96.2229 263.9023 13.18689505141879
ONEWEB-0427             
1 50499U 21132AG  24283.53711341  .00000127  00000+0  29041-3 0  9998
2 50499  87.9042  97.9782 0001525  84.6671 275.4635 13.18687683140475
ONEWEB-0429             
1 50500U 21132AH  24284.51085320  .00000102  00000+0  22479-3 0  9992
2 50500  87.9054  97.7965 0001836  92.8332 267.3010 13.18686562141868
ONEWEB-0430             
1 50501U 21132AJ  24283.74101386 -.00000072  00000+0 -21595-3 0  9994
2 50501  87.9049  97.9515 0002068  82.5267 277.6100 13.18685170140516
ONEWEB-0432             
1 50502U 21132AK  24283.77264027  .00000060  00000+0  11846-3 0  9993
2 50502  87.9045  97.9366 0001861  77.6165 282.5175 13.18686576140472
ONEWEB-0440             
1 50503U 21132AL  24283.98761642  .00000204  00000+0  48365-3 0  9998
2 50503  87.9046  97.8855 0001730 106.3287 253.8035 13.18684730141787
ONEWEB-0450             
1 50504U 21132AM  24284.51258255  .00000117  00000+0  26474-3 0  9990
2 50504  87.9052  97.8095 0002069  90.4100 269.7270 13.18685650141884
TIANHUI 4A              
1 50572U 21134A   24284.55010087  .00015091  00000+0  44353-3 0  9993
2 50572  88.9757  49.0308 0009260 336.3704  23.7123 15.34972020155206
TIANHUI 4B              
1 50573U 21134B   24284.55037715  .00015416  00000+0  45315-3 0  9991
2 50573  88.9756  49.0286 0008941 342.0429  18.0507 15.34971075155172
TJS-9                   
1 50574U 21135A   24284.53799486 -.00000294  00000+0  00000+0 0  9998
2 50574   0.0107 238.7190 0000437  41.5156  70.3168  1.00271812 10296
STARLINK-3321           
1 50803U 22001A   24284.37337149  .00001321  00000+0  10105-3 0  9994
2 50803  53.2181 322.4678 0001667  90.8211 269.2973 15.08842272153883
STARLINK-3323           
1 50804U 22001B   24284.47366349  .00022351  00000+0  14172-2 0  9993
2 50804  53.2165 312.0155 0001449  86.7044 273.4114 15.08859126154013
STARLINK-3333           
1 50805U 22001C   24284.40373873  .00003745  00000+0  25322-3 0  9993
2 50805  53.2171 312.3285 0001493  99.7921 260.3240 15.08842261154023
STARLINK-3335           
1 50806U 22001D   24284.46629631  .00002640  00000+0  18391-3 0  9997
2 50806  53.2176 312.0495 0001523  84.9658 275.1508 15.08841510154034
STARLINK-3355           
1 50808U 22001F   24284.45891409  .00006327  00000+0  41504-3 0  9990
2 50808  53.2168 312.0822 0001538 113.8576 246.2578 15.08860720154016
STARLINK-3232           
1 50809U 22001G   24284.39637292  .00001219  00000+0  94668-4 0  9997
2 50809  53.2179 312.3643 0001395  92.2327 267.8825 15.08844129154039
STARLINK-3347           
1 50811U 22001J   24284.12038632 -.00001741  00000+0 -91386-4 0  9990
2 50811  53.2176 313.6408 0001504  89.5197 270.5968 15.08822716153999
STARLINK-3338           
1 50812U 22001K   24284.35591037  .00001116  00000+0  88171-4 0  9991
2 50812  53.2172 312.6487 0001074 102.8831 257.2281 15.08843973153996
STARLINK-3349           
1 50813U 22001L   24284.37429994  .00004051  00000+0  27255-3 0  9992
2 50813  53.2179 312.4180 0001398  99.2667 260.8483 15.08829097154005
STARLINK-3324           
1 50814U 22001M   24283.82874278  .00007658  00000+0  49882-3 0  9997
2 50814  53.2182 324.9131 0001521  97.0573 263.0593 15.08832814153809
STARLINK-3234           
1 50815U 22001N   24284.43593047  .00001870  00000+0  13550-3 0  9991
2 50815  53.2184 322.1841 0001617  96.0216 264.0960 15.08847470153891
STARLINK-3342           
1 50816U 22001P   24284.40649709  .00002099  00000+0  14997-3 0  9996
2 50816  53.2188 322.3207 0001422  91.2373 268.8782 15.08831708153890
STARLINK-3341           
1 50817U 22001Q   24283.83610894  .00000809  00000+0  68942-4 0  9993
2 50817  53.2184 324.8778 0001720  86.6115 273.5074 15.08824572153786
STARLINK-3336           
1 50818U 22001R   24283.81770009 -.00002061  00000+0 -11144-3 0  9992
2 50818  53.2185 324.9674 0001624 110.0997 250.0170 15.08839644152521
STARLINK-3327           
1 50819U 22001S   24284.42122253  .00022446  00000+0  14230-2 0  9998
2 50819  53.2168 322.2505 0001369  85.6592 274.4556 15.08863905153820
STARLINK-3339           
1 50820U 22001T   24284.40281666  .00001898  00000+0  13734-3 0  9999
2 50820  53.2165 322.3342 0001118  81.5902 278.5217 15.08831094153891
STARLINK-3346           
1 50821U 22001U   24284.37704620  .00023757  00000+0  15048-2 0  9993
2 50821  53.2173 322.3332 0001509  94.9120 265.2045 15.08863095153869
STARLINK-3343           
1 50822U 22001V   24284.39545494  .00004586  00000+0  30605-3 0  9994
2 50822  53.2175 322.3667 0001492  94.4765 265.6398 15.08841757153860
STARLINK-3334           
1 50823U 22001W   24283.83241354 -.00001305  00000+0 -63903-4 0  9997
2 50823  53.2182 324.8946 0001680  91.5577 268.5608 15.08837146152530
STARLINK-3332           
1 50825U 22001Y   24284.39914981  .00006039  00000+0  39723-3 0  9993
2 50825  53.2175 322.3513 0001382  98.3063 261.8086 15.08834491153886
STARLINK-3329           
1 50827U 22001AA  24284.47643224  .00002440  00000+0  17138-3 0  9991
2 50827  53.2174 322.0039 0001528 102.0312 258.0851 15.08830433153890
STARLINK-3290           
1 50828U 22001AB  24283.40279783 -.00000723  00000+0 -27344-4 0  9994
2 50828  53.2170 326.7194 0001697  75.7441 284.3739 15.08837868152318
STARLINK-3294           
1 50829U 22001AC  24284.48378245  .00015459  00000+0  98690-3 0  9998
2 50829  53.2172 321.9718 0001406  94.4892 265.6260 15.08852907153892
STARLINK-3278           
1 50830U 22001AD  24284.43501215  .00003595  00000+0  24380-3 0  9993
2 50830  53.2180 332.1889 0001607  74.4396 285.6773 15.08847115153757
STARLINK-3299           
1 50831U 22001AE  24284.11579072  .00015262  00000+0  97478-3 0  9997
2 50831  53.2166 323.6882 0001503  95.4982 264.6181 15.08844978153843
STARLINK-3328           
1 50832U 22001AF  24284.17102703  .00013728  00000+0  87839-3 0  9992
2 50832  53.2187 333.4254 0002330 121.0909 239.0313 15.08861836153691
STARLINK-3331           
1 50834U 22001AH  24284.42030673  .00035645  00000+0  22447-2 0  9993
2 50834  53.2176 332.2547 0001513  92.9101 267.2064 15.08868244153758
STARLINK-3310           
1 50835U 22001AJ  24284.42398193  .00001828  00000+0  13292-3 0  9993
2 50835  53.2184 332.3570 0001723 100.6167 259.5019 15.08848427153730
STARLINK-3330           
1 50836U 22001AK  24283.87291292  .00005935  00000+0  39075-3 0  9994
2 50836  53.2175 334.4891 0001468 103.8619 256.2537 15.08834607153658
STARLINK-3318           
1 50837U 22001AL  24283.85450617 -.00000398  00000+0 -69091-5 0  9994
2 50837  53.2191 324.7945 0001505  96.7579 263.3584 15.08833838152538
STARLINK-3322           
1 50838U 22001AM  24284.27498361  .00062182  00000+0  30464-2 0  9996
2 50838  53.2183 324.7613 0002605  80.2203 279.9087 15.17588960153777
STARLINK-3320           
1 50839U 22001AN  24283.87197271  .00000450  00000+0  46349-4 0  9999
2 50839  53.2186 334.7164 0001535  92.4613 267.6555 15.08841514152381
STARLINK-3295           
1 50840U 22001AP  24284.46447146  .00016703  00000+0  10653-2 0  9991
2 50840  53.2171 332.0535 0001238  71.5393 288.5733 15.08832409153769
STARLINK-3300           
1 50841U 22001AQ  24284.40925573  .00004749  00000+0  31624-3 0  9990
2 50841  53.2185 332.3038 0001507  90.1819 269.9345 15.08840610153771
STARLINK-3302           
1 50842U 22001AR  24284.46078372  .00020909  00000+0  13270-2 0  9995
2 50842  53.2169 332.0729 0001448  86.4919 273.6239 15.08865492153769
STARLINK-3325           
1 50843U 22001AS  24284.15166182  .00007827  00000+0  50924-3 0  9991
2 50843  53.2165 333.4587 0001295 106.7732 253.3402 15.08843688153638
STARLINK-3326           
1 50844U 22001AT  24283.85357351  .00000315  00000+0  37882-4 0  9992
2 50844  53.2185 334.8021 0001600  88.4725 271.6450 15.08839366152393
STARLINK-3230           
1 50845U 22001AU  24284.42767099  .00030615  00000+0  19323-2 0  9995
2 50845  53.2179 332.2225 0001477  87.9483 272.1678 15.08859239153718
STARLINK-3308           
1 50846U 22001AV  24284.45710567  .00000735  00000+0  64240-4 0  9997
2 50846  53.2184 332.2072 0001258  94.8607 265.2528 15.08852818153765
STARLINK-3319           
1 50847U 22001AW  24284.40586688  .00071143  00000+0  43730-2 0  9998
2 50847  53.2179 332.3230 0001443  34.4251 325.6834 15.09424106153675
STARLINK-3315           
1 50848U 22001AX  24284.44238888  .00029255  00000+0  18474-2 0  9993
2 50848  53.2178 332.1545 0001402  87.3787 272.7366 15.08864022153797
STARLINK-3311           
1 50849U 22001AY  24284.45342411  .00014957  00000+0  95538-3 0  9993
2 50849  53.2174 332.1072 0001404  92.3324 267.7829 15.08857535153681
STARLINK-3312           
1 50850U 22001AZ  24284.32462193  .00002611  00000+0  18208-3 0  9994
2 50850  53.2178 292.6862 0001365  81.5727 278.5419 15.08834456154309
STARLINK-3314           
1 50851U 22001BA  24284.16638330 -.00000905  00000+0 -38798-4 0  9998
2 50851  53.2172 333.3174 0001598 105.0469 255.0700 15.08818439153727
UMBRA-02                
1 50986U 22002C   24284.12719051  .00311006  00000+0  36908-2 0  9998
2 50986  97.3680 349.9160 0008280 205.0047 155.0810 15.60130411151954
